
    {
        "ARG_OF_PERICENTER": 94.3441,
        "BSTAR": 0.0002781,
        "CLASSIFICATION_TYPE": "U",
        "ECCENTRICITY": 0.0129828,
        "ELEMENT_SET_NO": 999,
        "EPHEMERIS_TYPE": 0,
        "EPOCH": "2026-03-30T04:05:10.997952",
        "INCLINATION": 64.7671,
        "MEAN_ANOMALY": 267.2518,
        "MEAN_MOTION": 14.90995373,
        "MEAN_MOTION_DDOT": 0,
        "MEAN_MOTION_DOT": 3.062e-05,
        "NORAD_CAT_ID": 40965,
        "OBJECT_ID": "2015-058B",
        "OBJECT_NAME": "AEROCUBE 5C",
        "RA_OF_ASC_NODE": 148.3198,
        "REV_AT_EPOCH": 35387
    },
    {
        "ARG_OF_PERICENTER": 93.2402,
        "BSTAR": 0.00035157,
        "CLASSIFICATION_TYPE": "U",
        "ECCENTRICITY": 0.0119758,
        "ELEMENT_SET_NO": 999,
        "EPHEMERIS_TYPE": 0,
        "EPOCH": "2026-03-30T04:29:15.650016",
        "INCLINATION": 64.7616,
        "MEAN_ANOMALY": 268.2422,
        "MEAN_MOTION": 14.95075357,
        "MEAN_MOTION_DDOT": 0,
        "MEAN_MOTION_DOT": 4.28e-05,
        "NORAD_CAT_ID": 40966,
        "OBJECT_ID": "2015-058C",
        "OBJECT_NAME": "AEROCUBE 7",
        "RA_OF_ASC_NODE": 132.1393,
        "REV_AT_EPOCH": 35414
    },
    {
        "ARG_OF_PERICENTER": 87.68,
        "BSTAR": 0.00029783,
        "CLASSIFICATION_TYPE": "U",
        "ECCENTRICITY": 0.01284,
        "ELEMENT_SET_NO": 999,
        "EPHEMERIS_TYPE": 0,
        "EPOCH": "2026-03-30T04:36:09.440352",
        "INCLINATION": 64.7757,
        "MEAN_ANOMALY": 273.9006,
        "MEAN_MOTION": 14.90499469,
        "MEAN_MOTION_DDOT": 0,
        "MEAN_MOTION_DOT": 3.236e-05,
        "NORAD_CAT_ID": 40967,
        "OBJECT_ID": "2015-058D",
        "OBJECT_NAME": "FOX-1A (AO-85)",
        "RA_OF_ASC_NODE": 164.3845,
        "REV_AT_EPOCH": 10179
    },
    {
        "ARG_OF_PERICENTER": 84.7425,
        "BSTAR": 0.00036628,
        "CLASSIFICATION_TYPE": "U",
        "ECCENTRICITY": 0.0116835,
        "ELEMENT_SET_NO": 999,
        "EPHEMERIS_TYPE": 0,
        "EPOCH": "2026-03-30T04:10:41.965248",
        "INCLINATION": 64.7752,
        "MEAN_ANOMALY": 276.7008,
        "MEAN_MOTION": 14.95243856,
        "MEAN_MOTION_DDOT": 0,
        "MEAN_MOTION_DOT": 4.456e-05,
        "NORAD_CAT_ID": 40968,
        "OBJECT_ID": "2015-058E",
        "OBJECT_NAME": "SINOD-D 1",
        "RA_OF_ASC_NODE": 146.2241,
        "REV_AT_EPOCH": 10484
    },
    {
        "ARG_OF_PERICENTER": 61.5269,
        "BSTAR": 0.0017631,
        "CLASSIFICATION_TYPE": "U",
        "ECCENTRICITY": 0.0034632,
        "ELEMENT_SET_NO": 999,
        "EPHEMERIS_TYPE": 0,
        "EPOCH": "2026-03-30T02:13:15.446496",
        "INCLINATION": 64.7569,
        "MEAN_ANOMALY": 298.9351,
        "MEAN_MOTION": 15.46751322,
        "MEAN_MOTION_DDOT": 0,
        "MEAN_MOTION_DOT": 0.00091701,
        "NORAD_CAT_ID": 40970,
        "OBJECT_ID": "2015-058G",
        "OBJECT_NAME": "SNAP-3 ALICE",
        "RA_OF_ASC_NODE": 14.3866,
        "REV_AT_EPOCH": 10460
    },
    {
        "ARG_OF_PERICENTER": 89.6832,
        "BSTAR": 0.0002951,
        "CLASSIFICATION_TYPE": "U",
        "ECCENTRICITY": 0.0130422,
        "ELEMENT_SET_NO": 999,
        "EPHEMERIS_TYPE": 0,
        "EPOCH": "2026-03-30T04:39:55.129248",
        "INCLINATION": 64.7762,
        "MEAN_ANOMALY": 271.9224,
        "MEAN_MOTION": 14.90130045,
        "MEAN_MOTION_DDOT": 0,
        "MEAN_MOTION_DOT": 3.188e-05,
        "NORAD_CAT_ID": 40971,
        "OBJECT_ID": "2015-058H",
        "OBJECT_NAME": "LMRST-SAT",
        "RA_OF_ASC_NODE": 160.5673,
        "REV_AT_EPOCH": 10178
    },
    {
        "ARG_OF_PERICENTER": 66.7125,
        "BSTAR": 0.0019847,
        "CLASSIFICATION_TYPE": "U",
        "ECCENTRICITY": 0.0035489,
        "ELEMENT_SET_NO": 999,
        "EPHEMERIS_TYPE": 0,
        "EPOCH": "2026-03-30T01:48:52.162272",
        "INCLINATION": 64.7497,
        "MEAN_ANOMALY": 293.7744,
        "MEAN_MOTION": 15.47852226,
        "MEAN_MOTION_DDOT": 0,
        "MEAN_MOTION_DOT": 0.00107652,
        "NORAD_CAT_ID": 40972,
        "OBJECT_ID": "2015-058J",
        "OBJECT_NAME": "SNAP-3 EDDIE",
        "RA_OF_ASC_NODE": 5.7085,
        "REV_AT_EPOCH": 10673
    },
    {
        "ARG_OF_PERICENTER": 91.3406,
        "BSTAR": 0.00032025,
        "CLASSIFICATION_TYPE": "U",
        "ECCENTRICITY": 0.0122835,
        "ELEMENT_SET_NO": 999,
        "EPHEMERIS_TYPE": 0,
        "EPOCH": "2026-03-30T03:41:07.461312",
        "INCLINATION": 64.7684,
        "MEAN_ANOMALY": 270.1783,
        "MEAN_MOTION": 14.93689753,
        "MEAN_MOTION_DDOT": 0,
        "MEAN_MOTION_DOT": 3.763e-05,
        "NORAD_CAT_ID": 40973,
        "OBJECT_ID": "2015-058K",
        "OBJECT_NAME": "PROPCUBE 3",
        "RA_OF_ASC_NODE": 139.3583,
        "REV_AT_EPOCH": 10299
    },
    {
        "ARG_OF_PERICENTER": 81.8688,
        "BSTAR": 0.00094288,
        "CLASSIFICATION_TYPE": "U",
        "ECCENTRICITY": 0.0078718,
        "ELEMENT_SET_NO": 999,
        "EPHEMERIS_TYPE": 0,
        "EPOCH": "2026-03-30T02:25:56.952768",
        "INCLINATION": 64.7589,
        "MEAN_ANOMALY": 279.1355,
        "MEAN_MOTION": 15.14302234,
        "MEAN_MOTION_DDOT": 0,
        "MEAN_MOTION_DOT": 0.0001858,
        "NORAD_CAT_ID": 40974,
        "OBJECT_ID": "2015-058L",
        "OBJECT_NAME": "BISONSAT",
        "RA_OF_ASC_NODE": 68.9864,
        "REV_AT_EPOCH": 10363
    },
    {
        "ARG_OF_PERICENTER": 87.8943,
        "BSTAR": 0.000516,
        "CLASSIFICATION_TYPE": "U",
        "ECCENTRICITY": 0.0104911,
        "ELEMENT_SET_NO": 999,
        "EPHEMERIS_TYPE": 0,
        "EPOCH": "2026-03-30T01:58:44.671008",
        "INCLINATION": 64.7638,
        "MEAN_ANOMALY": 273.4184,
        "MEAN_MOTION": 15.0137235,
        "MEAN_MOTION_DDOT": 0,
        "MEAN_MOTION_DOT": 7.332e-05,
        "NORAD_CAT_ID": 40975,
        "OBJECT_ID": "2015-058M",
        "OBJECT_NAME": "SNAP-3 JIMI",
        "RA_OF_ASC_NODE": 109.8848,
        "REV_AT_EPOCH": 10234
    },
    {
        "ARG_OF_PERICENTER": 91.9704,
        "BSTAR": 0.00031816,
        "CLASSIFICATION_TYPE": "U",
        "ECCENTRICITY": 0.012941,
        "ELEMENT_SET_NO": 999,
        "EPHEMERIS_TYPE": 0,
        "EPOCH": "2026-03-30T05:04:28.629408",
        "INCLINATION": 64.7754,
        "MEAN_ANOMALY": 269.6233,
        "MEAN_MOTION": 14.8878416,
        "MEAN_MOTION_DDOT": 0,
        "MEAN_MOTION_DOT": 3.318e-05,
        "NORAD_CAT_ID": 40976,
        "OBJECT_ID": "2015-058N",
        "OBJECT_NAME": "PROPCUBE 1 (FLORA)",
        "RA_OF_ASC_NODE": 179.9152,
        "REV_AT_EPOCH": 10450
    },
    {
        "ARG_OF_PERICENTER": 89.7499,
        "BSTAR": 0.0003907,
        "CLASSIFICATION_TYPE": "U",
        "ECCENTRICITY": 0.01178,
        "ELEMENT_SET_NO": 999,
        "EPHEMERIS_TYPE": 0,
        "EPOCH": "2026-03-30T04:06:08.117856",
        "INCLINATION": 64.7732,
        "MEAN_ANOMALY": 271.7112,
        "MEAN_MOTION": 14.93403798,
        "MEAN_MOTION_DDOT": 0,
        "MEAN_MOTION_DOT": 4.541e-05,
        "NORAD_CAT_ID": 40977,
        "OBJECT_ID": "2015-058P",
        "OBJECT_NAME": "SINOD-D 3",
        "RA_OF_ASC_NODE": 162.4425,
        "REV_AT_EPOCH": 10295
    },
    {
        "ARG_OF_PERICENTER": 336.7446,
        "BSTAR": 0.0010961283,
        "CLASSIFICATION_TYPE": "U",
        "ECCENTRICITY": 0.00055457,
        "ELEMENT_SET_NO": 999,
        "EPHEMERIS_TYPE": 0,
        "EPOCH": "2026-03-28T20:34:56.596800",
        "INCLINATION": 30.991,
        "MEAN_ANOMALY": 23.2957,
        "MEAN_MOTION": 15.66645055,
        "MEAN_MOTION_DDOT": 0,
        "MEAN_MOTION_DOT": 0.00121486,
        "NORAD_CAT_ID": 41340,
        "OBJECT_ID": "2016-012D",
        "OBJECT_NAME": "HORYU-4",
        "RA_OF_ASC_NODE": 293.5854,
        "REV_AT_EPOCH": 55811
    }