AEROCUBE 5C             
1 40965U 15058B   26089.17026618  .00003062  00000+0  27810-3 0  9990
2 40965  64.7671 148.3198 0129828  94.3441 267.2518 14.90995373353873
AEROCUBE 7              
1 40966U 15058C   26089.18698669  .00004280  00000+0  35157-3 0  9999
2 40966  64.7616 132.1393 0119758  93.2402 268.2422 14.95075357354149
FOX-1A (AO-85)          
1 40967U 15058D   26089.19177593  .00003236  00000+0  29783-3 0  9997
2 40967  64.7757 164.3845 0128400  87.6800 273.9006 14.90499469101799
SINOD-D 1               
1 40968U 15058E   26089.17409682  .00004456  00000+0  36628-3 0  9994
2 40968  64.7752 146.2241 0116835  84.7425 276.7008 14.95243856104848
SNAP-3 ALICE            
1 40970U 15058G   26089.09253989  .00091701  00000+0  17631-2 0  9996
2 40970  64.7569  14.3866 0034632  61.5269 298.9351 15.46751322104608
LMRST-SAT               
1 40971U 15058H   26089.19438807  .00003188  00000+0  29510-3 0  9994
2 40971  64.7762 160.5673 0130422  89.6832 271.9224 14.90130045101782
SNAP-3 EDDIE            
1 40972U 15058J   26089.07560373  .00107652  00000+0  19847-2 0  9998
2 40972  64.7497   5.7085 0035489  66.7125 293.7744 15.47852226106737
PROPCUBE 3              
1 40973U 15058K   26089.15355858  .00003763  00000+0  32025-3 0  9990
2 40973  64.7684 139.3583 0122835  91.3406 270.1783 14.93689753102990
BISONSAT                
1 40974U 15058L   26089.10135362  .00018580  00000+0  94288-3 0  9994
2 40974  64.7589  68.9864 0078718  81.8688 279.1355 15.14302234103636
SNAP-3 JIMI             
1 40975U 15058M   26089.08246147  .00007332  00000+0  51600-3 0  9990
2 40975  64.7638 109.8848 0104911  87.8943 273.4184 15.01372350102340
PROPCUBE 1 (FLORA)      
1 40976U 15058N   26089.21144247  .00003318  00000+0  31816-3 0  9991
2 40976  64.7754 179.9152 0129410  91.9704 269.6233 14.88784160104500
SINOD-D 3               
1 40977U 15058P   26089.17092729  .00004541  00000+0  39070-3 0  9993
2 40977  64.7732 162.4425 0117800  89.7499 271.7112 14.93403798102951
HORYU-4                 
1 41340U 16012D   26087.85759950  .00121486  00000+0  10961-2 0  9993
2 41340  30.9910 293.5854 0005545 336.7446  23.2957 15.66645055558115
